{"type": "FeatureCollection", "features": [{"type": "Feature", "properties": {"name": "惠济区滩区候选范围", "status": "县界使用近似基准转换，仅用于区域筛选，非湿地或工程边界"}, "geometry": {"type": "MultiPolygon", "coordinates": [[[[113.76191681317924, 34.88846746120625], [113.76195501176915, 34.88845299106242], [113.76302005056468, 34.888049526878625], [113.76316448745813, 34.88799480958715], [113.76321658938592, 34.88797507222288], [113.76507462416573, 34.88727116555269], [113.76232772147979, 34.886343322492024], [113.76215927212084, 34.886286421338404], [113.76115911480045, 34.885948568205286], [113.75891335504693, 34.88503120883445], [113.75779309648121, 34.88467629673208], [113.75735665982019, 34.884538024581005], [113.75560364504734, 34.88398261254183], [113.75515186551986, 34.88374134937472], [113.75491518191221, 34.88361495890498], [113.75456808849748, 34.883429601030606], [113.75449213568334, 34.88258849654796], [113.75447491119554, 34.88258275771748], [113.75443038346945, 34.88256792181486], [113.75345764894436, 34.88224381780348], [113.75312464764609, 34.882220271794715], [113.75275095469613, 34.88219384779339], [113.75227135588331, 34.88215993261191], [113.75210064453212, 34.88214786106442], [113.75178058713898, 34.88212522654618], [113.74795963007372, 34.88219512452159], [113.74790894200315, 34.88219605153099], [113.74744601185992, 34.88220451127274], [113.74625463761106, 34.88229197476738], [113.7460735501471, 34.882305268184396], [113.74584856467052, 34.882321783111244], [113.743539634844, 34.88249124858711], [113.74310122664934, 34.88252342142181], [113.74294638170387, 34.88253478345344], [113.74274028167278, 34.882549907443455], [113.74057596843241, 34.882852735525304], [113.74048379765642, 34.88286563071264], [113.73958835178517, 34.88299090771313], [113.73926687678387, 34.883035881700316], [113.73819940584261, 34.88318380561041], [113.7344251273983, 34.88370674180748], [113.73271100659595, 34.88408785942308], [113.7326408203561, 34.884103463321125], [113.73219853236064, 34.88420179679881], [113.73167212642636, 34.884369791403515], [113.72993077826732, 34.88492549676954], [113.729732282051, 34.88498883941535], [113.72970863786931, 34.88499638382439], [113.72828792244552, 34.885449740194076], [113.72765444646645, 34.88565187799297], [113.72483677336673, 34.886550924053395], [113.72477127303925, 34.88657182339515], [113.72452756594524, 34.88664957934815], [113.72002024715643, 34.88821850107166], [113.72001375515974, 34.88822382148484], [113.71998028044032, 34.88825125680254], [113.7191821812786, 34.888905349277685], [113.71894341210029, 34.88910103234151], [113.71837391099297, 34.88956776157965], [113.71687628980045, 34.88998361681783], [113.71665379259669, 34.890049888257415], [113.7163802529924, 34.890131361240314], [113.71635126984992, 34.8901185046113], [113.71518888765222, 34.88960289255339], [113.71516936283265, 34.889600937651245], [113.71504434778926, 34.889588423547586], [113.71381619136464, 34.889465475249544], [113.71354431818246, 34.88951667059339], [113.71348034430191, 34.8895287175198], [113.71285583146462, 34.88964631389186], [113.71277566600244, 34.88966140857991], [113.71218093198496, 34.889773393939606], [113.71067127063888, 34.89005764039308], [113.71054584993531, 34.89008125495217], [113.71022604499889, 34.89014146617019], [113.71005482981202, 34.89017370197228], [113.7095264193235, 34.89027318590546], [113.70946857676648, 34.890284075354856], [113.70895112608322, 34.89038149353939], [113.70833880955604, 34.89044201317189], [113.7078679484443, 34.89048855016059], [113.70627108299371, 34.890646359423506], [113.70606596730526, 34.890666628188875], [113.70603934482878, 34.8906692589873], [113.70603623247285, 34.89066956604818], [113.70571657330349, 34.89070115273539], [113.70546268278913, 34.890726240242316], [113.69963896571362, 34.892231809612], [113.69940337534644, 34.89229270783237], [113.69940431799463, 34.89229881801693], [113.69948685147457, 34.892833508820466], [113.69943176412373, 34.89284490867933], [113.699352456964, 34.892861321665826], [113.69922868658675, 34.89288693510506], [113.69892053359538, 34.892950705842416], [113.6982338787231, 34.893092802751184], [113.69797371415385, 34.89314664054842], [113.69615485086648, 34.89352301117127], [113.69612529440974, 34.89352912716826], [113.6950483749058, 34.893751954792485], [113.69441655800728, 34.89388268116807], [113.69420594609684, 34.89392625678061], [113.69395087147079, 34.89420684910288], [113.69393897799172, 34.894219930845466], [113.69388166247856, 34.894282980601176], [113.69185909908649, 34.89650778421836], [113.69120679275156, 34.89722528283498], [113.69118022791373, 34.8972545025457], [113.69116105103852, 34.897275595122466], [113.69070944017449, 34.89764917081372], [113.69060291203307, 34.89773729041292], [113.69046616142246, 34.897850409742375], [113.69013823608778, 34.89812166634107], [113.68983199936068, 34.898374980150464], [113.68975861465067, 34.89843568203297], [113.68958850231371, 34.89857639520586], [113.68913106306711, 34.89898602020685], [113.68898786961834, 34.89911424584824], [113.68876640181452, 34.89931256250956], [113.68874787869258, 34.899329149400444], [113.68847439474584, 34.89957404253607], [113.6883078434153, 34.89972318021921], [113.68814691007817, 34.89986728698217], [113.6877725494806, 34.900202503403285], [113.68753932800271, 34.90041133659402], [113.68732444460566, 34.9006037489426], [113.68705443734865, 34.90083093627092], [113.68703185727917, 34.90084993629613], [113.68673617182853, 34.901098727184184], [113.68671749474701, 34.901114442615665], [113.68595714848335, 34.90175419146852], [113.68529105237847, 34.9023146270749], [113.68525518003645, 34.90234480928346], [113.68523745625338, 34.90235972110577], [113.68391637250718, 34.90347121150258], [113.68386976492121, 34.903510424375526], [113.68376573962199, 34.90359794313728], [113.68354418676911, 34.90378434154535], [113.68664728569753, 34.90593564036672], [113.68694999503585, 34.90614549036652], [113.68803226051061, 34.90617174810805], [113.688541559253, 34.90626853433547], [113.68901670363022, 34.9063588284516], [113.69455173796325, 34.90741052852845], [113.69492621078216, 34.90734849416724], [113.69566473166971, 34.9072261472798], [113.69606990164425, 34.90715902307257], [113.69676325959665, 34.90704415078532], [113.69923412799021, 34.90663475638432], [113.6997342207882, 34.906551889328014], [113.7002253808638, 34.90647050170182], [113.70230238648494, 34.90612630437364], [113.70253157778454, 34.90608832105915], [113.7039855618705, 34.905847344617335], [113.70419839714023, 34.90581206846823], [113.70478278806006, 34.905715207718245], [113.70497201281863, 34.9056838434983], [113.70546678327904, 34.90560183407366], [113.70550693799056, 34.90559517813591], [113.70916905321398, 34.904988102913954], [113.71105475734555, 34.90467545955897], [113.71121063323051, 34.90464961389291], [113.71356366431947, 34.904259442205905], [113.71406747835984, 34.90417589476159], [113.71466318178119, 34.904077106583365], [113.71702002768751, 34.90368622961703], [113.7171294356848, 34.9036680832363], [113.71714662356436, 34.903665232466174], [113.71723004059875, 34.90365139636592], [113.7175237735182, 34.903602677576785], [113.7175560757322, 34.90359731994333], [113.71760810893643, 34.90358868921259], [113.71938748715937, 34.903293542104755], [113.71976479140531, 34.90323095446494], [113.72044682580825, 34.903117814544636], [113.72050791094296, 34.90310768093471], [113.72297472292526, 34.90269843639328], [113.72336792731154, 34.90263319935035], [113.7234233092269, 34.90262401037576], [113.72824771267548, 34.90182346535036], [113.72966683620331, 34.90158794062839], [113.72978201770735, 34.9015688239759], [113.72992226154065, 34.90154554708241], [113.73017252703573, 34.901463259338634], [113.73162174520493, 34.900986737491145], [113.73182986638403, 34.90091830234147], [113.73190054597232, 34.900895061657636], [113.7319627447671, 34.900874609174366], [113.73335587560491, 34.900416503482255], [113.73399350849529, 34.90020682185059], [113.73475524387999, 34.89995632485894], [113.73669248074101, 34.899319233904144], [113.73680333642938, 34.89928277639447], [113.73694954518264, 34.89923469158201], [113.73704487786276, 34.89920333911018], [113.73869041025547, 34.89866214131432], [113.73915490068366, 34.89850937085668], [113.73928274868967, 34.89846732102984], [113.74412014193645, 34.896876154120044], [113.74437661517891, 34.896791785873354], [113.74457887586448, 34.896725249967886], [113.74478964120149, 34.89662270008946], [113.74482841264711, 34.8966038359503], [113.74566732337709, 34.8961956519382], [113.74572645784527, 34.89616687870474], [113.7490129021824, 34.89456771330721], [113.74940628847106, 34.894376283254694], [113.74985971171999, 34.894155635930936], [113.75277164804726, 34.892738542448605], [113.75317637717193, 34.89254157146663], [113.7532209306288, 34.89251988868849], [113.75331804078394, 34.89247262726287], [113.75347019992654, 34.89239857433054], [113.75367689063884, 34.89229798282856], [113.7537874014976, 34.89224419863089], [113.75390952651702, 34.892184761749874], [113.7539952757708, 34.892143028481094], [113.75405640717238, 34.89211327718923], [113.7541176667147, 34.89208346302777], [113.75418037128703, 34.89205294506237], [113.7542262936961, 34.89203059494342], [113.75533518042732, 34.89149090131469], [113.75629795619786, 34.891022306113356], [113.75884798840151, 34.889781110101886], [113.75968852459296, 34.889371969153316], [113.75973176769483, 34.889350919569125], [113.76024810109057, 34.88909958291467], [113.76071961353344, 34.888920973411345], [113.76118838716322, 34.88874339870467], [113.76124304173456, 34.88872269459748], [113.76191681317924, 34.88846746120625]]], [[[113.59928171938788, 34.928306919060425], [113.59984453254701, 34.928393497010866], [113.6000210570272, 34.928420651109825], [113.60067203909912, 34.928520787455355], [113.60112122953689, 34.92858988131116], [113.60210830657573, 34.928741706771525], [113.60413787699467, 34.92893198999301], [113.60528699223622, 34.929597407424964], [113.60578172035513, 34.931101885242526], [113.60691788228709, 34.931048063254664], [113.60783053715905, 34.931004820923995], [113.60814330144318, 34.93082101156477], [113.60857102103068, 34.930569641496334], [113.60980297583451, 34.9298456064469], [113.60983364779878, 34.92982757986119], [113.61230756227482, 34.92837355214509], [113.6123896984132, 34.92832527540727], [113.61271630272842, 34.928133307372214], [113.6132950322862, 34.9277931445485], [113.61381737838161, 34.927486116814634], [113.61385320346446, 34.92746505889073], [113.61412964411484, 34.92730256969387], [113.6141753836361, 34.92727568414215], [113.61675654486052, 34.925758432200205], [113.61687919964983, 34.92568633121459], [113.61690461840688, 34.92567138883339], [113.61823822543565, 34.92488742450256], [113.61835476286836, 34.924818916452075], [113.61838862127448, 34.92479901198427], [113.61860133964925, 34.92467396240662], [113.6186673343777, 34.924635165584725], [113.61872273469879, 34.92460259652309], [113.61890011901131, 34.92449831798903], [113.61896745119084, 34.9244587346797], [113.61898637916563, 34.924447606908586], [113.6200728063999, 34.923808913151966], [113.62207388050899, 34.92263245919709], [113.6221225634444, 34.92260383738692], [113.62429032456119, 34.92132930872935], [113.62431381265213, 34.92131549816423], [113.62666923035945, 34.91993054744344], [113.62669358011567, 34.91991622977511], [113.62914420595172, 34.918475198745035], [113.62916427560775, 34.91846339681096], [113.62942145439197, 34.91831216299256], [113.6294467468679, 34.91829898339068], [113.62949520379567, 34.91827373360255], [113.62956862954466, 34.91823547264183], [113.62980142861282, 34.918114164623574], [113.63094569061576, 34.91751789497725], [113.63099553199642, 34.91749192226934], [113.63164444331106, 34.917153767951454], [113.63201813937442, 34.91695902821132], [113.63205120015508, 34.916941800008935], [113.63271855205103, 34.9165940256241], [113.63551408102484, 34.91513713172284], [113.6355622622384, 34.91511202108296], [113.63999047882027, 34.91280400804223], [113.64001910866261, 34.91278908470225], [113.64037264971537, 34.912604803766385], [113.64039754715584, 34.91259182711116], [113.64065607498276, 34.91245706958244], [113.64069395239099, 34.91243732574792], [113.64187756619, 34.911820357196824], [113.64300892452631, 34.91123060776017], [113.64555680684012, 34.90990238895476], [113.64627404917337, 34.9095284706071], [113.64679070818568, 34.90925911787571], [113.64702349085194, 34.90910449802338], [113.64933332988447, 34.90757019769912], [113.649806793324, 34.907255689162454], [113.65056470983599, 34.906752217955386], [113.65057190685151, 34.90674743693474], [113.65045919772021, 34.906767669974094], [113.6497511883606, 34.90689476323998], [113.64775661515999, 34.907252779743075], [113.64661481779655, 34.907442925402385], [113.64633809543095, 34.907489007250916], [113.6447474188323, 34.907753882290606], [113.64315144667725, 34.90801961600041], [113.64246289815131, 34.908134254909314], [113.64155390622173, 34.90821987859113], [113.64135193185145, 34.90823890241772], [113.6409491420751, 34.9082768407143], [113.64092094707102, 34.908279496742466], [113.64089758496355, 34.90828169741921], [113.64055962791166, 34.908313527948536], [113.6402889087331, 34.90833902508141], [113.6398654016374, 34.908378910368015], [113.63965679836194, 34.90839855622607], [113.63962601113059, 34.90840145575578], [113.63602018630544, 34.908740983638616], [113.63561928555596, 34.908778726025446], [113.63549936369304, 34.908790015996395], [113.6335435527588, 34.90897412242432], [113.63351545571048, 34.90896989581223], [113.6333510232464, 34.90894516056681], [113.63181401679138, 34.908713935948455], [113.63177072935846, 34.908707422958294], [113.6315530151041, 34.90867466911982], [113.63097891288186, 34.90858829575752], [113.63014080015549, 34.90846219629176], [113.62828326876198, 34.90831968734377], [113.6282287502428, 34.90831550489255], [113.62736481486864, 34.90824921371865], [113.6267984380988, 34.90820575139975], [113.62642192129117, 34.90824929549897], [113.62531239865817, 34.90837760466624], [113.62457915090029, 34.908462394572325], [113.62454553339342, 34.90846628208052], [113.62453159899393, 34.908467893084165], [113.62336440931938, 34.90860285233386], [113.62327098459178, 34.908613653483094], [113.62322898965131, 34.9086185097933], [113.62304618752893, 34.90863964482496], [113.62062700190435, 34.908441691526015], [113.61712183468443, 34.90815478952628], [113.61614129477677, 34.90843055509162], [113.61591301688193, 34.90849475379683], [113.61374769868722, 34.9102626937865], [113.61132346179903, 34.911266492572594], [113.61119933063074, 34.91128556462851], [113.61104774462291, 34.91130885553187], [113.61092478720947, 34.91132774717987], [113.61045160552628, 34.91140044909389], [113.61022785811521, 34.91143482549454], [113.60760624883774, 34.911837576879144], [113.6071733199624, 34.91190408083023], [113.60673475248959, 34.911870377385405], [113.60642246266976, 34.91184637740267], [113.60619355388195, 34.911828784392824], [113.60522473360786, 34.911754321459796], [113.60520354141401, 34.911752692313385], [113.6028078175475, 34.91147530316252], [113.60224565851813, 34.91141020600766], [113.59710084401236, 34.91075780216946], [113.5967091545696, 34.91070812367223], [113.59567833867821, 34.910577376560305], [113.59448578904005, 34.910426104586705], [113.59379958749976, 34.91033905632054], [113.59335873851543, 34.91028313006157], [113.5933245389764, 34.91027879081727], [113.59297461884267, 34.91023439870634], [113.59286707097164, 34.91022075470193], [113.59232449215087, 34.9101519184977], [113.59184333513578, 34.910090872256994], [113.5910631235043, 34.90999188020189], [113.58949409882561, 34.90979278748681], [113.58939866518887, 34.9097806776394], [113.58785799597995, 34.91018538636932], [113.58597670489009, 34.91078635121048], [113.58482362143954, 34.911154676539994], [113.58481406977097, 34.911157727558965], [113.58474518803443, 34.911217997016955], [113.58413285255409, 34.91175376255158], [113.58373870545337, 34.912098629202596], [113.58368079454739, 34.91214929797563], [113.58363694778105, 34.9121876613794], [113.58357954563884, 34.91223788475749], [113.58342780870846, 34.9123706449005], [113.58300918818924, 34.91241230011553], [113.58162954370601, 34.91254956944767], [113.58069835496416, 34.912642210213065], [113.58009072176156, 34.91270265773746], [113.58005580151878, 34.912706131810616], [113.57982407385177, 34.91272918338161], [113.57958842442936, 34.91275262386387], [113.57905237216625, 34.912805945847325], [113.57901603076603, 34.91280956072361], [113.57768679109826, 34.912941770541494], [113.5776479391545, 34.91294563498225], [113.57725787036813, 34.91298442925608], [113.5772305632967, 34.912987144791416], [113.57682893498027, 34.913027087305146], [113.57642802230058, 34.91306695797164], [113.57639557387844, 34.913070184514076], [113.5756079779039, 34.913148505694814], [113.57555945516528, 34.913153330827], [113.57360586298874, 34.913347578214115], [113.57348734958181, 34.91335936081758], [113.57261842177847, 34.91344574831606], [113.57164406489326, 34.9135426089295], [113.56939429784651, 34.91376622823996], [113.56933500225175, 34.91377212051686], [113.56821540007655, 34.91388338921117], [113.56490973893665, 34.91421184948091], [113.56301358168271, 34.914156171025745], [113.56129177444967, 34.91410558773533], [113.56053730864238, 34.91408341526167], [113.55844880393705, 34.91422973867566], [113.55835432772766, 34.91423635678182], [113.55794042051946, 34.91426535119849], [113.5575840982363, 34.91429031102773], [113.55746674938702, 34.91429853076661], [113.55732006274845, 34.91430880505327], [113.55728725370736, 34.9143111030557], [113.556026942298, 34.91439937245247], [113.55586798925604, 34.91441050426195], [113.5550069487875, 34.91440683703246], [113.55441880304839, 34.914404329545555], [113.55381029435516, 34.91440173092925], [113.55373681828091, 34.914401416967216], [113.55259856025029, 34.91439654851332], [113.55208043846139, 34.91439432894837], [113.55198167413747, 34.914393906292986], [113.55190237992781, 34.91439356616694], [113.55117703448623, 34.91439045409458], [113.54978833650864, 34.91451140512732], [113.54940281202717, 34.91454498072015], [113.54934077380398, 34.9145503834408], [113.54914120830604, 34.914567762889405], [113.5490486389672, 34.91453024624493], [113.54890672625756, 34.91447273300567], [113.54527922011746, 34.913002498593265], [113.54356821417619, 34.91198762044315], [113.54350154161017, 34.91194807317037], [113.54183668765288, 34.91047695656915], [113.54174447618858, 34.91039615382825], [113.54143558584033, 34.910125474072174], [113.54106335662752, 34.90979928943401], [113.54048084535948, 34.909288825148884], [113.53963716675331, 34.9085494804151], [113.53959162664584, 34.90850957206418], [113.5395381094916, 34.90846267116078], [113.53944422457906, 34.90838039557186], [113.53939146108377, 34.90833415637338], [113.5392986283128, 34.90825280227091], [113.53919417751048, 34.90816126614818], [113.53911720119143, 34.90809380651306], [113.53905758063127, 34.90819579498608], [113.53862436129387, 34.90893685880538], [113.53781967617827, 34.91031330969366], [113.53769847954149, 34.910520617433505], [113.53738159965775, 34.911062637611145], [113.5366402891904, 34.9123306113872], [113.53569505164123, 34.91411064939609], [113.53562508566394, 34.91424240265188], [113.53384035040507, 34.91760310754173], [113.53380121221763, 34.917684918565506], [113.53294413686152, 34.919476434067406], [113.53258111607308, 34.92023521854905], [113.53225239682267, 34.9209126378649], [113.53223537738216, 34.920947711034145], [113.5319765704582, 34.92148104906024], [113.5316043189858, 34.922248153287676], [113.53108640621375, 34.923315397872955], [113.5310634590671, 34.92336268337657], [113.5303015758438, 34.924932613843744], [113.53013772289705, 34.92527023915058], [113.52979239005482, 34.92598179977185], [113.52951977984665, 34.92654350552101], [113.52861067288703, 34.928416636645984], [113.52852756244212, 34.92853006968023], [113.52835847284524, 34.9287608481557], [113.52822756585716, 34.92893951333552], [113.52769343499445, 34.92966849798886], [113.5275125428461, 34.92991537762568], [113.52750524350655, 34.929925340172176], [113.5270041420871, 34.93060922677377], [113.52697776274967, 34.930645228978165], [113.52678072506852, 34.93091413660721], [113.52652907448393, 34.93125757196766], [113.526448310211, 34.931367793807276], [113.52622067387199, 34.93167845315873], [113.52615083787259, 34.93177375805267], [113.5260339933331, 34.93193321753942], [113.5257919418914, 34.93226354387037], [113.52558843615948, 34.93254126497958], [113.52555299618463, 34.93258962909722], [113.5254196157395, 34.93277164989767], [113.52518830014355, 34.9330873171466], [113.52461271563361, 34.93387278282879], [113.52454684462701, 34.933995793637386], [113.52447296592516, 34.93413375674655], [113.52438005676866, 34.93430725712716], [113.52433202809097, 34.93439694504061], [113.52365103000076, 34.93566862691475], [113.52350254263884, 34.935945902005685], [113.52349800038111, 34.93595438512596], [113.52338286923563, 34.93616937106363], [113.52335976503088, 34.93621251431542], [113.52317460078096, 34.93655827360184], [113.52314978012575, 34.936604620796246], [113.52292181184629, 34.937030302149154], [113.52267775515928, 34.937486019672235], [113.52256862942433, 34.93768978632641], [113.52255125415975, 34.937722229084976], [113.52233601521354, 34.938124130331076], [113.52216487710913, 34.938443681324124], [113.52135643713447, 34.93995317315779], [113.5213312901687, 34.94000012619183], [113.52125686942163, 34.940139078351336], [113.52114848690165, 34.94034144128718], [113.52104632206796, 34.94053219269838], [113.52102380522709, 34.9405742353911], [113.52078415508235, 34.941021680634584], [113.52078120916322, 34.9410271818619], [113.5206007662316, 34.94136408138826], [113.52031731139294, 34.94189330363359], [113.52006671387156, 34.94236117176594], [113.51989469255008, 34.94268233736075], [113.51968750976177, 34.94306914194842], [113.51966459624472, 34.94310050233477], [113.51953948363014, 34.94327173236065], [113.51951534514438, 34.94330476894795], [113.51922731830217, 34.943698961521086], [113.51913066944856, 34.94383123429738], [113.51892979531583, 34.94410614612939], [113.51853845020074, 34.944641727597926], [113.518378225635, 34.94486100410608], [113.5183048284966, 34.9449614513861], [113.5182751968079, 34.945002002374665], [113.51802251180835, 34.945347809860664], [113.51775103913549, 34.94571932529635], [113.51768064429555, 34.945815662084584], [113.51763551493723, 34.945877420347905], [113.51741085033602, 34.94618487494868], [113.51738320304904, 34.94622270961975], [113.51737342336361, 34.94623609322054], [113.51726494420592, 34.946394581850484], [113.51717313088407, 34.946528721832685], [113.51656370174744, 34.947419087197844], [113.51635779636341, 34.9477199072249], [113.51539713228912, 34.94912336527305], [113.51523766163457, 34.94935633327425], [113.51504021096781, 34.949530020717866], [113.51459393557947, 34.94992258371648], [113.51442478828218, 34.95007137174836], [113.51374999336399, 34.95066493680441], [113.51374968303573, 34.95066520868013], [113.51372682274469, 34.95068643930008], [113.51369159386226, 34.95071915535201], [113.51302389978267, 34.951339220011334], [113.51293696492114, 34.95141995233274], [113.51277798771225, 34.951567587165144], [113.51219856486465, 34.95210566288769], [113.51210561779578, 34.952191977031376], [113.51209064197724, 34.9522058837489], [113.51207964110625, 34.952233127014054], [113.51205355608819, 34.952297725936475], [113.51200444143548, 34.952419356339234], [113.51171859484904, 34.9531272414604], [113.51167167919579, 34.953243424500066], [113.5115984743188, 34.95342471208258], [113.51106529029711, 34.95474506928205], [113.51080253311771, 34.95539573429108], [113.5107435652335, 34.955541755389724], [113.51052642962678, 34.95607943987842], [113.51039132806223, 34.956413980141505], [113.5103600899246, 34.95649133311035], [113.51023441895317, 34.956802519514625], [113.51048656518486, 34.956618663254346], [113.51061791873241, 34.95652288477891], [113.51100503468413, 34.956240610609754], [113.51109894358771, 34.95617213413602], [113.51144780264096, 34.9559177518282], [113.51354322737915, 34.9543897501228], [113.51381738380638, 34.95418982585295], [113.5139590685985, 34.95408650354606], [113.51396855543352, 34.954079585565175], [113.5149455859445, 34.95391244816297], [113.51508821414781, 34.953888048544734], [113.5152592054709, 34.9538587962556], [113.51541244297015, 34.95383258175362], [113.51549933417138, 34.95381771670322], [113.51584567344715, 34.9537584655215], [113.51588051885938, 34.95375250387467], [113.51597651247754, 34.95373608202386], [113.51690941954003, 34.95357647596321], [113.51786473854008, 34.95341302707416], [113.51807966239416, 34.95337625370813], [113.51823232169735, 34.95335013429923], [113.51884028180937, 34.953246110148214], [113.51971914963568, 34.95309572744651], [113.5200232891401, 34.953043684257835], [113.52081117471332, 34.95290886055361], [113.52109430918827, 34.9528604094368], [113.52112471663033, 34.9528552057729], [113.52157818891804, 34.95277760371295], [113.52161981153357, 34.95277048089285], [113.52216971794739, 34.952676373533905], [113.52240451984727, 34.952521548489756], [113.52341833452118, 34.95185303987514], [113.52375424663103, 34.951631535368186], [113.52380849599255, 34.95159576226529], [113.52383334250106, 34.951579377937335], [113.52491473023538, 34.95086628235504], [113.52626579411003, 34.94997532307428], [113.52630660917688, 34.94994840658622], [113.52651073025085, 34.9498137961723], [113.52770214285036, 34.94902808516926], [113.52930976483043, 34.94796785040361], [113.5293845801777, 34.947918508454784], [113.53132742602894, 34.94663712280788], [113.53138121940103, 34.94660164286428], [113.53367034686724, 34.94509177624226], [113.53427717838382, 34.94469150495454], [113.5354161970075, 34.9439401796762], [113.53544448572083, 34.943921519292886], [113.53767209213572, 34.94245206154236], [113.53770643928247, 34.942429402615716], [113.53960614604722, 34.941176171214934], [113.54000815914388, 34.94091095436073], [113.5402644446529, 34.940741876938255], [113.54029528669906, 34.94072152866789], [113.54030561314731, 34.9407147172383], [113.54284477950101, 34.939039493302026], [113.54289121862458, 34.93900885427876], [113.54338341301685, 34.93868411264734], [113.54421307022768, 34.938248889287756], [113.54471044408959, 34.937987970521775], [113.54474818347947, 34.93796817245749], [113.54481367463426, 34.937933816469375], [113.54486929893217, 34.93790463617912], [113.54562779441358, 34.93750672499996], [113.54567064126152, 34.93748424700703], [113.54786339044216, 34.93633387148418], [113.54841687900804, 34.936043485271725], [113.54843586307933, 34.93603352524041], [113.55015815290665, 34.93512990030284], [113.5501840279302, 34.93511632392012], [113.55104880998833, 34.93466257341304], [113.55141602128484, 34.93446991237701], [113.55143602109021, 34.934459418397125], [113.552691140289, 34.93380084827891], [113.55272499012142, 34.93378308674003], [113.5536224312789, 34.93331217823218], [113.55366884224854, 34.93328782568655], [113.55505965609326, 34.932558007915624], [113.55591554217297, 34.93210887518323], [113.55600817809503, 34.932060262267484], [113.5575152897048, 34.93126936478853], [113.55777283109343, 34.93113420962751], [113.55873473181985, 34.93062940355715], [113.55882557052254, 34.930587948849706], [113.55906131755702, 34.93048036446273], [113.55906559324387, 34.93047841405984], [113.55914703431783, 34.930441248045156], [113.55999935684818, 34.930052278569875], [113.5600779883494, 34.930016393435025], [113.56014733998504, 34.929984743612565], [113.56031235848789, 34.92990943348324], [113.56097922964227, 34.92960508836006], [113.56100607365482, 34.92959283728198], [113.56113348578825, 34.92953468772097], [113.56122865363301, 34.92949125477648], [113.56247892523628, 34.928920638324065], [113.56343220336407, 34.92848555335622], [113.56346628765459, 34.92846999712615], [113.56426652374411, 34.928104752881865], [113.56612584919132, 34.927432315443795], [113.56677322152244, 34.9271981802719], [113.57079895019243, 34.925742082805186], [113.57388573004327, 34.92504571144606], [113.57391716793423, 34.925038619615655], [113.57502192631202, 34.92478936579693], [113.57562436741081, 34.92465343937097], [113.58069668160735, 34.92405858092344], [113.58608208267192, 34.92459013423192], [113.59113539831309, 34.92570831736435], [113.59852070333008, 34.92815705002193], [113.59870527838966, 34.928218241040916], [113.59885189735299, 34.928240796540024], [113.59928171938788, 34.928306919060425]]]]}}]}