{"type": "FeatureCollection", "features": [{"type": "Feature", "properties": {"id": "H1", "status": "仅由几何内接筛出的遥感核查窗口，非已确认湿地或补水管理单元", "area_km2": 1.0, "center_lon": 113.54466654778766, "center_lat": 34.924898630902845}, "geometry": {"type": "Polygon", "coordinates": [[[113.53905875702601, 34.92050877466985], [113.53933645648615, 34.92951744702241], [113.55027493508308, 34.92928819932494], [113.54999604255539, 34.92027960329506], [113.53905875702601, 34.92050877466985]]]}}, {"type": "Feature", "properties": {"id": "H2", "status": "仅由几何内接筛出的遥感核查窗口，非已确认湿地或补水管理单元", "area_km2": 1.0, "center_lon": 113.72818369842014, "center_lat": 34.893790655135646}, "geometry": {"type": "Polygon", "coordinates": [[[113.72256892249702, 34.889409605139036], [113.7228663344928, 34.898416993759575], [113.7337990696116, 34.89817141492646], [113.73350046707914, 34.88916410808702], [113.72256892249702, 34.889409605139036]]]}}]}